STARLINK-35966          
1 66821U 25280A   25356.16668980 -.00137548  00000+0 -22683-2 0  9997
2 66821  69.9997 172.5962 0003437 273.0668 206.6609 15.52561630  4417
STARLINK-35958          
1 66822U 25280B   25356.16668980 -.00128137  00000+0 -21109-2 0  9994
2 66822  69.9995 172.5947 0003442 271.4272 210.2152 15.52556007  4414
STARLINK-35957          
1 66823U 25280C   25356.16668980 -.00117425  00000+0 -19320-2 0  9995
2 66823  69.9995 172.5920 0003435 269.6918 213.8719 15.52550015  4415
STARLINK-35896          
1 66824U 25280D   25356.16668980 -.00136559  00000+0 -22517-2 0  9997
2 66824  69.9995 172.5898 0003618 273.0453 212.4303 15.52560792  4413
STARLINK-35476          
1 66825U 25280E   25356.16668980  .00043596  00000+0  70926-3 0  9992
2 66825  69.9995 172.5859 0003336 268.8730 218.5616 15.52448625  4265
STARLINK-35898          
1 66826U 25280F   25356.16668980 -.00122738  00000+0 -20206-2 0  9996
2 66826  69.9997 172.5847 0003411 272.7602 216.5474 15.52554554  4417
STARLINK-35959          
1 66827U 25280G   25356.16668980 -.00129799  00000+0 -21385-2 0  9990
2 66827  69.9997 172.5825 0003341 273.2027 218.0223 15.52559526  4416
STARLINK-35982          
1 66828U 25280H   25356.16668980 -.00125950  00000+0 -20743-2 0  9993
2 66828  69.9997 172.5780 0003404 274.2375 220.8211 15.52555950  4419
STARLINK-36084          
1 66829U 25280J   25356.16668980 -.00209428  00000+0 -34770-2 0  9992
2 66829  69.9998 172.5796 0002933 273.6899 219.3716 15.52638002  4253
STARLINK-35881          
1 66830U 25280K   25356.16668980 -.00117258  00000+0 -19303-2 0  9998
2 66830  69.9998 172.5743 0003349 273.8567 223.1673 15.52535655  4416
STARLINK-35788          
1 66831U 25280L   25356.16668980 -.00129159  00000+0 -21280-2 0  9999
2 66831  69.9996 172.5738 0003430 277.9118 220.9815 15.52556688  4419
STARLINK-35768          
1 66832U 25280M   25356.16668980 -.00092699  00000+0 -15200-2 0  9993
2 66832  69.9999 172.5708 0003277 271.9952 228.7844 15.52548803  4417
