CCSDS_OMM_VERS = 2.0
CREATION_DATE  = 
ORIGINATOR     = 

OBJECT_NAME    = STARLINK-35966
OBJECT_ID      = 2025-280A
CENTER_NAME    = EARTH
REF_FRAME      = TEME
TIME_SYSTEM    = UTC
MEAN_ELEMENT_THEORY = SGP/SGP4

EPOCH          = 2025-12-22T04:00:01.998720
MEAN_MOTION    = 15.52561630
ECCENTRICITY   = .0003437
INCLINATION    = 69.9997
RA_OF_ASC_NODE = 172.5962
ARG_OF_PERICENTER = 273.0668
MEAN_ANOMALY   = 206.6609

EPHEMERIS_TYPE = 0
CLASSIFICATION_TYPE = U
NORAD_CAT_ID   = 66821
ELEMENT_SET_NO = 999
REV_AT_EPOCH   = 441
BSTAR          = -.22683E-2
MEAN_MOTION_DOT = -.137548E-2
MEAN_MOTION_DDOT = 0

CCSDS_OMM_VERS = 2.0
CREATION_DATE  = 
ORIGINATOR     = 

OBJECT_NAME    = STARLINK-35958
OBJECT_ID      = 2025-280B
CENTER_NAME    = EARTH
REF_FRAME      = TEME
TIME_SYSTEM    = UTC
MEAN_ELEMENT_THEORY = SGP/SGP4

EPOCH          = 2025-12-22T04:00:01.998720
MEAN_MOTION    = 15.52556007
ECCENTRICITY   = .0003442
INCLINATION    = 69.9995
RA_OF_ASC_NODE = 172.5947
ARG_OF_PERICENTER = 271.4272
MEAN_ANOMALY   = 210.2152

EPHEMERIS_TYPE = 0
CLASSIFICATION_TYPE = U
NORAD_CAT_ID   = 66822
ELEMENT_SET_NO = 999
REV_AT_EPOCH   = 441
BSTAR          = -.21109E-2
MEAN_MOTION_DOT = -.128137E-2
MEAN_MOTION_DDOT = 0

CCSDS_OMM_VERS = 2.0
CREATION_DATE  = 
ORIGINATOR     = 

OBJECT_NAME    = STARLINK-35957
OBJECT_ID      = 2025-280C
CENTER_NAME    = EARTH
REF_FRAME      = TEME
TIME_SYSTEM    = UTC
MEAN_ELEMENT_THEORY = SGP/SGP4

EPOCH          = 2025-12-22T04:00:01.998720
MEAN_MOTION    = 15.52550015
ECCENTRICITY   = .0003435
INCLINATION    = 69.9995
RA_OF_ASC_NODE = 172.5920
ARG_OF_PERICENTER = 269.6918
MEAN_ANOMALY   = 213.8719

EPHEMERIS_TYPE = 0
CLASSIFICATION_TYPE = U
NORAD_CAT_ID   = 66823
ELEMENT_SET_NO = 999
REV_AT_EPOCH   = 441
BSTAR          = -.1932E-2
MEAN_MOTION_DOT = -.117425E-2
MEAN_MOTION_DDOT = 0

CCSDS_OMM_VERS = 2.0
CREATION_DATE  = 
ORIGINATOR     = 

OBJECT_NAME    = STARLINK-35896
OBJECT_ID      = 2025-280D
CENTER_NAME    = EARTH
REF_FRAME      = TEME
TIME_SYSTEM    = UTC
MEAN_ELEMENT_THEORY = SGP/SGP4

EPOCH          = 2025-12-22T04:00:01.998720
MEAN_MOTION    = 15.52560792
ECCENTRICITY   = .0003618
INCLINATION    = 69.9995
RA_OF_ASC_NODE = 172.5898
ARG_OF_PERICENTER = 273.0453
MEAN_ANOMALY   = 212.4303

EPHEMERIS_TYPE = 0
CLASSIFICATION_TYPE = U
NORAD_CAT_ID   = 66824
ELEMENT_SET_NO = 999
REV_AT_EPOCH   = 441
BSTAR          = -.22517E-2
MEAN_MOTION_DOT = -.136559E-2
MEAN_MOTION_DDOT = 0

CCSDS_OMM_VERS = 2.0
CREATION_DATE  = 
ORIGINATOR     = 

OBJECT_NAME    = STARLINK-35476
OBJECT_ID      = 2025-280E
CENTER_NAME    = EARTH
REF_FRAME      = TEME
TIME_SYSTEM    = UTC
MEAN_ELEMENT_THEORY = SGP/SGP4

EPOCH          = 2025-12-22T04:00:01.998720
MEAN_MOTION    = 15.52448625
ECCENTRICITY   = .0003336
INCLINATION    = 69.9995
RA_OF_ASC_NODE = 172.5859
ARG_OF_PERICENTER = 268.8730
MEAN_ANOMALY   = 218.5616

EPHEMERIS_TYPE = 0
CLASSIFICATION_TYPE = U
NORAD_CAT_ID   = 66825
ELEMENT_SET_NO = 999
REV_AT_EPOCH   = 426
BSTAR          = .70926E-3
MEAN_MOTION_DOT = .43596E-3
MEAN_MOTION_DDOT = 0

CCSDS_OMM_VERS = 2.0
CREATION_DATE  = 
ORIGINATOR     = 

OBJECT_NAME    = STARLINK-35898
OBJECT_ID      = 2025-280F
CENTER_NAME    = EARTH
REF_FRAME      = TEME
TIME_SYSTEM    = UTC
MEAN_ELEMENT_THEORY = SGP/SGP4

EPOCH          = 2025-12-22T04:00:01.998720
MEAN_MOTION    = 15.52554554
ECCENTRICITY   = .0003411
INCLINATION    = 69.9997
RA_OF_ASC_NODE = 172.5847
ARG_OF_PERICENTER = 272.7602
MEAN_ANOMALY   = 216.5474

EPHEMERIS_TYPE = 0
CLASSIFICATION_TYPE = U
NORAD_CAT_ID   = 66826
ELEMENT_SET_NO = 999
REV_AT_EPOCH   = 441
BSTAR          = -.20206E-2
MEAN_MOTION_DOT = -.122738E-2
MEAN_MOTION_DDOT = 0

CCSDS_OMM_VERS = 2.0
CREATION_DATE  = 
ORIGINATOR     = 

OBJECT_NAME    = STARLINK-35959
OBJECT_ID      = 2025-280G
CENTER_NAME    = EARTH
REF_FRAME      = TEME
TIME_SYSTEM    = UTC
MEAN_ELEMENT_THEORY = SGP/SGP4

EPOCH          = 2025-12-22T04:00:01.998720
MEAN_MOTION    = 15.52559526
ECCENTRICITY   = .0003341
INCLINATION    = 69.9997
RA_OF_ASC_NODE = 172.5825
ARG_OF_PERICENTER = 273.2027
MEAN_ANOMALY   = 218.0223

EPHEMERIS_TYPE = 0
CLASSIFICATION_TYPE = U
NORAD_CAT_ID   = 66827
ELEMENT_SET_NO = 999
REV_AT_EPOCH   = 441
BSTAR          = -.21385E-2
MEAN_MOTION_DOT = -.129799E-2
MEAN_MOTION_DDOT = 0

CCSDS_OMM_VERS = 2.0
CREATION_DATE  = 
ORIGINATOR     = 

OBJECT_NAME    = STARLINK-35982
OBJECT_ID      = 2025-280H
CENTER_NAME    = EARTH
REF_FRAME      = TEME
TIME_SYSTEM    = UTC
MEAN_ELEMENT_THEORY = SGP/SGP4

EPOCH          = 2025-12-22T04:00:01.998720
MEAN_MOTION    = 15.52555950
ECCENTRICITY   = .0003404
INCLINATION    = 69.9997
RA_OF_ASC_NODE = 172.5780
ARG_OF_PERICENTER = 274.2375
MEAN_ANOMALY   = 220.8211

EPHEMERIS_TYPE = 0
CLASSIFICATION_TYPE = U
NORAD_CAT_ID   = 66828
ELEMENT_SET_NO = 999
REV_AT_EPOCH   = 441
BSTAR          = -.20743E-2
MEAN_MOTION_DOT = -.12595E-2
MEAN_MOTION_DDOT = 0

CCSDS_OMM_VERS = 2.0
CREATION_DATE  = 
ORIGINATOR     = 

OBJECT_NAME    = STARLINK-36084
OBJECT_ID      = 2025-280J
CENTER_NAME    = EARTH
REF_FRAME      = TEME
TIME_SYSTEM    = UTC
MEAN_ELEMENT_THEORY = SGP/SGP4

EPOCH          = 2025-12-22T04:00:01.998720
MEAN_MOTION    = 15.52638002
ECCENTRICITY   = .0002933
INCLINATION    = 69.9998
RA_OF_ASC_NODE = 172.5796
ARG_OF_PERICENTER = 273.6899
MEAN_ANOMALY   = 219.3716

EPHEMERIS_TYPE = 0
CLASSIFICATION_TYPE = U
NORAD_CAT_ID   = 66829
ELEMENT_SET_NO = 999
REV_AT_EPOCH   = 425
BSTAR          = -.3477E-2
MEAN_MOTION_DOT = -.209428E-2
MEAN_MOTION_DDOT = 0

CCSDS_OMM_VERS = 2.0
CREATION_DATE  = 
ORIGINATOR     = 

OBJECT_NAME    = STARLINK-35881
OBJECT_ID      = 2025-280K
CENTER_NAME    = EARTH
REF_FRAME      = TEME
TIME_SYSTEM    = UTC
MEAN_ELEMENT_THEORY = SGP/SGP4

EPOCH          = 2025-12-22T04:00:01.998720
MEAN_MOTION    = 15.52535655
ECCENTRICITY   = .0003349
INCLINATION    = 69.9998
RA_OF_ASC_NODE = 172.5743
ARG_OF_PERICENTER = 273.8567
MEAN_ANOMALY   = 223.1673

EPHEMERIS_TYPE = 0
CLASSIFICATION_TYPE = U
NORAD_CAT_ID   = 66830
ELEMENT_SET_NO = 999
REV_AT_EPOCH   = 441
BSTAR          = -.19303E-2
MEAN_MOTION_DOT = -.117258E-2
MEAN_MOTION_DDOT = 0

CCSDS_OMM_VERS = 2.0
CREATION_DATE  = 
ORIGINATOR     = 

OBJECT_NAME    = STARLINK-35788
OBJECT_ID      = 2025-280L
CENTER_NAME    = EARTH
REF_FRAME      = TEME
TIME_SYSTEM    = UTC
MEAN_ELEMENT_THEORY = SGP/SGP4

EPOCH          = 2025-12-22T04:00:01.998720
MEAN_MOTION    = 15.52556688
ECCENTRICITY   = .000343
INCLINATION    = 69.9996
RA_OF_ASC_NODE = 172.5738
ARG_OF_PERICENTER = 277.9118
MEAN_ANOMALY   = 220.9815

EPHEMERIS_TYPE = 0
CLASSIFICATION_TYPE = U
NORAD_CAT_ID   = 66831
ELEMENT_SET_NO = 999
REV_AT_EPOCH   = 441
BSTAR          = -.2128E-2
MEAN_MOTION_DOT = -.129159E-2
MEAN_MOTION_DDOT = 0

CCSDS_OMM_VERS = 2.0
CREATION_DATE  = 
ORIGINATOR     = 

OBJECT_NAME    = STARLINK-35768
OBJECT_ID      = 2025-280M
CENTER_NAME    = EARTH
REF_FRAME      = TEME
TIME_SYSTEM    = UTC
MEAN_ELEMENT_THEORY = SGP/SGP4

EPOCH          = 2025-12-22T04:00:01.998720
MEAN_MOTION    = 15.52548803
ECCENTRICITY   = .0003277
INCLINATION    = 69.9999
RA_OF_ASC_NODE = 172.5708
ARG_OF_PERICENTER = 271.9952
MEAN_ANOMALY   = 228.7844

EPHEMERIS_TYPE = 0
CLASSIFICATION_TYPE = U
NORAD_CAT_ID   = 66832
ELEMENT_SET_NO = 999
REV_AT_EPOCH   = 441
BSTAR          = -.152E-2
MEAN_MOTION_DOT = -.92699E-3
MEAN_MOTION_DDOT = 0

